[{"OBJECT_NAME":"STARLINK-4572","OBJECT_ID":"2022-105AW","EPOCH":"2026-03-09T16:09:10.695744","MEAN_MOTION":15.21020685,"ECCENTRICITY":0.00018422,"INCLINATION":97.6182,"RA_OF_ASC_NODE":315.6347,"ARG_OF_PERICENTER":18.3505,"MEAN_ANOMALY":341.7796,"EPHEMERIS_TYPE":0,"CLASSIFICATION_TYPE":"U","NORAD_CAT_ID":53692,"ELEMENT_SET_NO":999,"REV_AT_EPOCH":19355,"BSTAR":0.00056421038,"MEAN_MOTION_DOT":0.00012459,"MEAN_MOTION_DDOT":0},{"OBJECT_NAME":"IRIDE FM7","OBJECT_ID":"2025-276AM","EPOCH":"2026-03-09T18:04:05.183328","MEAN_MOTION":15.18866259,"ECCENTRICITY":0.0003982,"INCLINATION":97.4286,"RA_OF_ASC_NODE":144.0153,"ARG_OF_PERICENTER":10.7537,"MEAN_ANOMALY":349.3782,"EPHEMERIS_TYPE":0,"CLASSIFICATION_TYPE":"U","NORAD_CAT_ID":66701,"ELEMENT_SET_NO":999,"REV_AT_EPOCH":1532,"BSTAR":0.00050729395,"MEAN_MOTION_DOT":0.00010516,"MEAN_MOTION_DDOT":0}]
